{
"type": "FeatureCollection",
"name": "mergedplots",
"crs": { "type": "name", "properties": { "name": "urn:ogc:def:crs:EPSG::32736" } },
"features": [
{ "type": "Feature", "properties": { "fid": 4, "area ": 0.58, "plot_id": "05A", "cultivar ": "masena ", "yield": null }, "geometry": { "type": "Polygon", "coordinates": [ [ [ 316839.40853587212041, 8036757.933902356773615 ], [ 316763.263280702172779, 8036767.116914711892605 ], [ 316750.837768925528508, 8036777.569624370895326 ], [ 316736.975439137895592, 8036788.817174936644733 ], [ 316719.984669212833978, 8036803.454672712832689 ], [ 316721.895914941211231, 8036822.306387996301055 ], [ 316756.65953319973778, 8036818.088581208139658 ], [ 316847.296241351403296, 8036806.987567806616426 ], [ 316846.719396583037451, 8036798.466507121920586 ], [ 316840.601391092350241, 8036757.758393267169595 ], [ 316839.40853587212041, 8036757.933902356773615 ] ] ] } },
{ "type": "Feature", "properties": { "fid": 5, "area ": 1.17, "plot_id": "05B", "cultivar ": "masena ", "yield": null }, "geometry": { "type": "Polygon", "coordinates": [ [ [ 317100.392791952937841, 8036777.580793806351721 ], [ 317098.146504353673663, 8036759.503057200461626 ], [ 317075.346233928226866, 8036741.982498493045568 ], [ 317061.939064244972542, 8036732.877443427219987 ], [ 317060.124576235946734, 8036732.643224905245006 ], [ 317054.021420036733616, 8036732.43178001139313 ], [ 317043.466147035476752, 8036733.826651949435472 ], [ 317011.712978725612629, 8036737.792877078987658 ], [ 316972.633715949545149, 8036741.753903528675437 ], [ 316923.920269549591467, 8036747.335685327649117 ], [ 316871.624792713439092, 8036753.816804952919483 ], [ 316858.731027356116101, 8036769.859564044512808 ], [ 316864.064983533986378, 8036805.152644025161862 ], [ 317100.392791952937841, 8036777.580793806351721 ] ] ] } },
{ "type": "Feature", "properties": { "fid": 6, "area ": 0.94, "plot_id": "06", "cultivar ": "masena ", "yield": null }, "geometry": { "type": "Polygon", "coordinates": [ [ [ 316848.561851967184339, 8036815.095388553105295 ], [ 316748.808558431570418, 8036826.578746191225946 ], [ 316691.384554637363181, 8036833.695991653949022 ], [ 316683.846096709021367, 8036843.820679966360331 ], [ 316665.786785956472158, 8036871.004397911950946 ], [ 316657.219809612783138, 8036882.860061973333359 ], [ 316658.277044085669331, 8036890.950444054789841 ], [ 316856.073703884379938, 8036866.165749233216047 ], [ 316848.561851967184339, 8036815.095388553105295 ] ] ] } },
{ "type": "Feature", "properties": { "fid": 7, "area ": 1.28, "plot_id": "07", "cultivar ": "eureka ", "yield": null }, "geometry": { "type": "Polygon", "coordinates": [ [ [ 317115.644483086885884, 8036835.559512441977859 ], [ 317116.721362511161715, 8036835.041048977524042 ], [ 317109.875127353647258, 8036782.764865449629724 ], [ 317025.567829735809937, 8036792.184736213646829 ], [ 316957.591638724436052, 8036800.386823825538158 ], [ 316909.292087042995263, 8036806.283181090839207 ], [ 316865.160356583015528, 8036812.342055719345808 ], [ 316871.598216666898225, 8036863.620089760050178 ], [ 316937.424910705303773, 8036856.020107281394303 ], [ 317024.366202653676737, 8036845.195119416341186 ], [ 317063.238622120814398, 8036841.076676712371409 ], [ 317085.478577679372393, 8036838.545900419354439 ], [ 317107.45536779135, 8036835.484334716573358 ], [ 317110.395461138687097, 8036836.381547966040671 ], [ 317115.644483086885884, 8036835.559512441977859 ] ] ] } },
{ "type": "Feature", "properties": { "fid": 10, "area ": 1.47, "plot_id": "10", "cultivar ": "eureka ", "yield": null }, "geometry": { "type": "Polygon", "coordinates": [ [ [ 316865.052366508054547, 8036931.00221848860383 ], [ 316641.643354528117925, 8036962.23344330303371 ], [ 316600.297770395292901, 8036969.684909928590059 ], [ 316592.105227692169137, 8036979.679233253933489 ], [ 316583.93098675715737, 8036987.68463815189898 ], [ 316578.63954708079109, 8036993.105906803160906 ], [ 316583.01270063710399, 8037022.733794302679598 ], [ 316655.169266365352087, 8037013.45250362996012 ], [ 316871.541000646073371, 8036983.244170919060707 ], [ 316868.187346207851078, 8036952.817693997174501 ], [ 316865.052366508054547, 8036931.00221848860383 ] ] ] } },
{ "type": "Feature", "properties": { "fid": 11, "area ": 1.5, "plot_id": "11", "cultivar ": "eureka ", "yield": null }, "geometry": { "type": "Polygon", "coordinates": [ [ [ 316880.537260697397869, 8037041.321009181439877 ], [ 316873.560966124583501, 8036990.286681034602225 ], [ 316587.537438409752212, 8037029.426447696983814 ], [ 316594.107230146299116, 8037040.426887399517 ], [ 316612.098684453521855, 8037078.882357221096754 ], [ 316857.570912096474785, 8037045.088080557063222 ], [ 316879.994384897116106, 8037042.061925193294883 ], [ 316880.537260697397869, 8037041.321009181439877 ] ] ] } },
{ "type": "Feature", "properties": { "fid": 12, "area ": 1.39, "plot_id": "12", "cultivar ": "eureka ", "yield": null }, "geometry": { "type": "Polygon", "coordinates": [ [ [ 316880.911683443584479, 8037049.187537086196244 ], [ 316618.172209552722052, 8037082.32591553684324 ], [ 316615.496737356181256, 8037088.268542369827628 ], [ 316642.472496320493519, 8037134.265723640099168 ], [ 316655.343934872071259, 8037133.638259334489703 ], [ 316888.662859487172682, 8037100.166818289086223 ], [ 316881.864324276102707, 8037049.227371899411082 ], [ 316880.911683443584479, 8037049.187537086196244 ] ] ] } },
{ "type": "Feature", "properties": { "fid": 14, "area ": 0.45, "plot_id": "G1A EX", "cultivar ": "eureka ", "yield": null }, "geometry": { "type": "Polygon", "coordinates": [ [ [ 316716.19050608726684, 8036513.448673846200109 ], [ 316669.393319007591344, 8036550.313338374719024 ], [ 316669.698029396706261, 8036556.034760098904371 ], [ 316683.081420875852928, 8036590.345315849408507 ], [ 316695.924055734823924, 8036605.754584006033838 ], [ 316753.410990517004393, 8036559.353571615181863 ], [ 316716.19050608726684, 8036513.448673846200109 ] ] ] } },
{ "type": "Feature", "properties": { "fid": 15, "area ": 0.57, "plot_id": "G1A", "cultivar ": "masena ", "yield": null }, "geometry": { "type": "Polygon", "coordinates": [ [ [ 316740.750191481667571, 8036524.179496028460562 ], [ 316879.685632542707026, 8036507.05825639795512 ], [ 316850.495475636969786, 8036468.748671625740826 ], [ 316750.353019727568608, 8036477.40006192214787 ], [ 316734.180194755317643, 8036487.321000070311129 ], [ 316735.112507847836241, 8036489.567297337576747 ], [ 316720.726353931007907, 8036499.504664856009185 ], [ 316740.750191481667571, 8036524.179496028460562 ] ] ] } },
{ "type": "Feature", "properties": { "fid": 16, "area ": 0.62, "plot_id": "G1B", "cultivar ": "eureka ", "yield": null }, "geometry": { "type": "Polygon", "coordinates": [ [ [ 316882.303888784721494, 8036510.563220996409655 ], [ 316743.491543227341026, 8036527.250501479953527 ], [ 316774.584556947345845, 8036565.888550270348787 ], [ 316840.347935054451227, 8036558.599191626533866 ], [ 316913.569505510036834, 8036549.886363277211785 ], [ 316882.303888784721494, 8036510.563220996409655 ] ] ] } },
{ "type": "Feature", "properties": { "fid": 17, "area ": 0.62, "plot_id": "G2A", "cultivar ": "masena ", "yield": null }, "geometry": { "type": "Polygon", "coordinates": [ [ [ 316780.359349221980665, 8036572.654824133962393 ], [ 316811.939822128158994, 8036610.11626460775733 ], [ 316954.790481844334863, 8036594.770901748910546 ], [ 316923.360893605626188, 8036553.830204863101244 ], [ 316840.009575313830283, 8036563.009357251226902 ], [ 316779.420165933144744, 8036571.154373034834862 ], [ 316780.359349221980665, 8036572.654824133962393 ] ] ] } },
{ "type": "Feature", "properties": { "fid": 18, "area ": 0.62, "plot_id": "G2B", "cultivar ": "eureka ", "yield": null }, "geometry": { "type": "Polygon", "coordinates": [ [ [ 316952.367954617599025, 8036599.130835242569447 ], [ 316813.92902309121564, 8036614.019485079683363 ], [ 316845.373370270128362, 8036653.34437121078372 ], [ 316975.345203230739571, 8036639.496542988345027 ], [ 316980.469359509646893, 8036639.294988011941314 ], [ 316952.367954617599025, 8036599.130835242569447 ] ] ] } },
{ "type": "Feature", "properties": { "fid": 19, "area ": 0.61, "plot_id": "G3A", "cultivar ": "masena ", "yield": null }, "geometry": { "type": "Polygon", "coordinates": [ [ [ 316852.440461053571198, 8036662.080503463745117 ], [ 316882.470454385329504, 8036699.7761817779392 ], [ 317018.299654359812848, 8036683.744173813611269 ], [ 316983.767128770588897, 8036643.396686950698495 ], [ 316885.486320930183865, 8036656.790008982643485 ], [ 316881.790375606564339, 8036657.128986772149801 ], [ 316880.263612251903396, 8036654.752916922792792 ], [ 316851.269898112223018, 8036659.832023669034243 ], [ 316852.440461053571198, 8036662.080503463745117 ] ] ] } },
{ "type": "Feature", "properties": { "fid": 21, "area ": 0.54, "plot_id": "P1", "cultivar ": "masena ", "yield": null }, "geometry": { "type": "Polygon", "coordinates": [ [ [ 316705.773077007383108, 8036389.843123367056251 ], [ 316732.963101029628888, 8036425.399568052962422 ], [ 316833.359542719786987, 8036415.010178015567362 ], [ 316782.375214400934055, 8036350.268988337367773 ], [ 316705.773077007383108, 8036389.843123367056251 ] ] ] } },
{ "type": "Feature", "properties": { "fid": 22, "area ": 0.46, "plot_id": "P2", "cultivar ": "masena ", "yield": null }, "geometry": { "type": "Polygon", "coordinates": [ [ [ 316734.360421305173077, 8036428.893321832641959 ], [ 316766.745755920594092, 8036469.470218661241233 ], [ 316865.116330771008506, 8036459.186329770833254 ], [ 316835.11878773389617, 8036418.009980719536543 ], [ 316734.360421305173077, 8036428.893321832641959 ] ] ] } }
]
}
