{
"type": "FeatureCollection",
"name": "mgp",
"crs": { "type": "name", "properties": { "name": "urn:ogc:def:crs:OGC:1.3:CRS84" } },
"features": [
{ "type": "Feature", "properties": { "fid": 4, "area ": 0.58, "plot_id": "05A", "cultivar ": "masena ", "yield": null }, "geometry": { "type": "Polygon", "coordinates": [ [ [ 31.272471366179293, -17.748854451842949 ], [ 31.271754217229635, -17.748765159217264 ], [ 31.271637968339604, -17.748669689114344 ], [ 31.271508241317388, -17.748566918356484 ], [ 31.271349311675451, -17.748433260212387 ], [ 31.271368967284872, -17.748263098793629 ], [ 31.271696373579044, -17.748304094779009 ], [ 31.272549988617001, -17.748411919836432 ], [ 31.272543811139755, -17.748488857507613 ], [ 31.272482597956106, -17.748856136609465 ], [ 31.272471366179293, -17.748854451842949 ] ] ] } },
{ "type": "Feature", "properties": { "fid": 5, "area ": 1.17, "plot_id": "05B", "cultivar ": "masena ", "yield": null }, "geometry": { "type": "Polygon", "coordinates": [ [ [ 31.274933792848813, -17.748698610939645 ], [ 31.274911048500762, -17.748861752497891 ], [ 31.27469455600265, -17.749018154990051 ], [ 31.27456735613022, -17.749099304577538 ], [ 31.274550227670577, -17.749101270138485 ], [ 31.274492664814396, -17.749102674110574 ], [ 31.27439326358958, -17.749089195978392 ], [ 31.274094217531875, -17.749050727142802 ], [ 31.273726096046762, -17.749011696718359 ], [ 31.27326727796385, -17.748957222600808 ], [ 31.272774764550508, -17.748894324650646 ], [ 31.272654584538593, -17.748748311552045 ], [ 31.272707935478458, -17.748429890679336 ], [ 31.274933792848813, -17.748698610939645 ] ] ] } },
{ "type": "Feature", "properties": { "fid": 6, "area ": 0.94, "plot_id": "06", "cultivar ": "masena ", "yield": null }, "geometry": { "type": "Polygon", "coordinates": [ [ [ 31.272562624365911, -17.74833877288992 ], [ 31.271623086235309, -17.748226735916187 ], [ 31.271082276181659, -17.748157660488772 ], [ 31.271012077576561, -17.748065559918889 ], [ 31.270844162513168, -17.747818460828949 ], [ 31.270764416897784, -17.747710635771519 ], [ 31.270775087085756, -17.747637629222229 ], [ 31.272637877270562, -17.747877989246074 ], [ 31.272562624365911, -17.74833877288992 ] ] ] } },
{ "type": "Feature", "properties": { "fid": 7, "area ": 1.28, "plot_id": "07", "cultivar ": "eureka ", "yield": null }, "geometry": { "type": "Polygon", "coordinates": [ [ [ 31.275082613891627, -17.748176052523327 ], [ 31.275092722490751, -17.74818082602847 ], [ 31.275023647063339, -17.748652560654698 ], [ 31.2742295604425, -17.748560460084814 ], [ 31.27358934916403, -17.74848071446943 ], [ 31.273134462203018, -17.748423432407666 ], [ 31.272718886460847, -17.748365027168223 ], [ 31.272784030766374, -17.747902277963444 ], [ 31.273404024846585, -17.747976407690427 ], [ 31.274222821376419, -17.748081424803651 ], [ 31.274588977300589, -17.748121859200186 ], [ 31.274798449938196, -17.748146569109181 ], [ 31.275005395426017, -17.748176052523323 ], [ 31.275033194073636, -17.74816819027955 ], [ 31.275082613891627, -17.748176052523327 ] ] ] } },
{ "type": "Feature", "properties": { "fid": 10, "area ": 1.47, "plot_id": "10", "cultivar ": "eureka ", "yield": null }, "geometry": { "type": "Polygon", "coordinates": [ [ [ 31.272728152676727, -17.747292954071213 ], [ 31.270624440879235, -17.746992223246995 ], [ 31.270235259812587, -17.746921463053052 ], [ 31.270158883730243, -17.746830485660851 ], [ 31.270082507647903, -17.746757479111555 ], [ 31.270033087829916, -17.746708059293567 ], [ 31.270076891759491, -17.746440743005365 ], [ 31.270756414256816, -17.746530597219877 ], [ 31.272793858571102, -17.746821500239406 ], [ 31.272759601651817, -17.747096117182537 ], [ 31.272728152676727, -17.747292954071213 ] ] ] } },
{ "type": "Feature", "properties": { "fid": 11, "area ": 1.5, "plot_id": "11", "cultivar ": "eureka ", "yield": null }, "geometry": { "type": "Polygon", "coordinates": [ [ [ 31.272883712785621, -17.746297537850975 ], [ 31.272813514180523, -17.746758040700389 ], [ 31.270120134100225, -17.746380652999402 ], [ 31.270183032050387, -17.746281813363431 ], [ 31.27035600141334, -17.745935874637524 ], [ 31.272667501081919, -17.746261596165166 ], [ 31.272878658486043, -17.746290798784877 ], [ 31.272883712785621, -17.746297537850975 ] ] ] } },
{ "type": "Feature", "properties": { "fid": 12, "area ": 1.39, "plot_id": "12", "cultivar ": "eureka ", "yield": null }, "geometry": { "type": "Polygon", "coordinates": [ [ [ 31.272887924701923, -17.746226496862622 ], [ 31.270413564269521, -17.745905268045703 ], [ 31.270388854360526, -17.745851355516994 ], [ 31.270647185227276, -17.745438026130191 ], [ 31.270768488416884, -17.745444765196279 ], [ 31.272965423961942, -17.745766555602042 ], [ 31.272896910123364, -17.746226216068195 ], [ 31.272887924701923, -17.746226496862622 ] ] ] } },
{ "type": "Feature", "properties": { "fid": 14, "area ": 0.45, "plot_id": "G1A EX", "cultivar ": "eureka ", "yield": null }, "geometry": { "type": "Polygon", "coordinates": [ [ [ 31.271288379286254, -17.751053072154566 ], [ 31.27085033999046, -17.750716118850118 ], [ 31.270853709523504, -17.750664452676759 ], [ 31.270982874956875, -17.750355578814347 ], [ 31.271105301324166, -17.750217427959512 ], [ 31.271643303433617, -17.750641427534294 ], [ 31.271288379286254, -17.751053072154566 ] ] ] } },
{ "type": "Feature", "properties": { "fid": 15, "area ": 0.57, "plot_id": "G1A", "cultivar ": "masena ", "yield": null }, "geometry": { "type": "Polygon", "coordinates": [ [ [ 31.271520877066344, -17.750958163640476 ], [ 31.27282937906531, -17.751124393937342 ], [ 31.272550831000299, -17.751468086307881 ], [ 31.271607361747822, -17.751381601626409 ], [ 31.27145573276082, -17.751290624234205 ], [ 31.271464718182276, -17.751270407035936 ], [ 31.271329936860486, -17.751179429643734 ], [ 31.271520877066344, -17.750958163640476 ] ] ] } },
{ "type": "Feature", "properties": { "fid": 16, "area ": 0.62, "plot_id": "G1B", "cultivar ": "eureka ", "yield": null }, "geometry": { "type": "Polygon", "coordinates": [ [ [ 31.272854369768719, -17.751092944962274 ], [ 31.271546990947421, -17.750930645787292 ], [ 31.271843509855344, -17.750584145472541 ], [ 31.272462942346703, -17.750655467255314 ], [ 31.273152573443159, -17.750740267170276 ], [ 31.272854369768719, -17.751092944962274 ] ] ] } },
{ "type": "Feature", "properties": { "fid": 17, "area ": 0.62, "plot_id": "G2A", "cultivar ": "masena ", "yield": null }, "geometry": { "type": "Polygon", "coordinates": [ [ [ 31.271898545561747, -17.750523493877726 ], [ 31.272199557180397, -17.750187663750957 ], [ 31.273545124042865, -17.75033816956029 ], [ 31.273245235601898, -17.750705448662139 ], [ 31.272460134402515, -17.75061559444762 ], [ 31.271889560140298, -17.750536972009911 ], [ 31.271898545561747, -17.750523493877726 ] ] ] } },
{ "type": "Feature", "properties": { "fid": 18, "area ": 0.62, "plot_id": "G2B", "cultivar ": "eureka ", "yield": null }, "geometry": { "type": "Polygon", "coordinates": [ [ [ 31.273522660489217, -17.75029857754701 ], [ 31.272218651200969, -17.75015256444841 ], [ 31.272518539641936, -17.749799886656408 ], [ 31.273742803314796, -17.74993579115587 ], [ 31.273791099955098, -17.749938037511235 ], [ 31.273522660489217, -17.75029857754701 ] ] ] } },
{ "type": "Feature", "properties": { "fid": 19, "area ": 0.61, "plot_id": "G3A", "cultivar ": "masena ", "yield": null }, "geometry": { "type": "Polygon", "coordinates": [ [ [ 31.272585930302835, -17.749721545013127 ], [ 31.27287234061162, -17.749383468530986 ], [ 31.27415163999088, -17.749539590228721 ], [ 31.273822548930188, -17.749901253442175 ], [ 31.272897050520616, -17.74977208800879 ], [ 31.272862232012489, -17.749768718475742 ], [ 31.272847630702632, -17.749790058851694 ], [ 31.272574698526014, -17.749741762211396 ], [ 31.272585930302835, -17.749721545013127 ] ] ] } },
{ "type": "Feature", "properties": { "fid": 21, "area ": 0.54, "plot_id": "P1", "cultivar ": "masena ", "yield": null }, "geometry": { "type": "Polygon", "coordinates": [ [ [ 31.271179431051163, -17.752168949181137 ], [ 31.271438885095591, -17.75184996671959 ], [ 31.272384600703425, -17.751952175888601 ], [ 31.27189826476733, -17.752532858749952 ], [ 31.271179431051163, -17.752168949181137 ] ] ] } },
{ "type": "Feature", "properties": { "fid": 22, "area ": 0.46, "plot_id": "P2", "cultivar ": "masena ", "yield": null }, "geometry": { "type": "Polygon", "coordinates": [ [ [ 31.271452363227777, -17.751818517744503 ], [ 31.271761237090193, -17.751454608175688 ], [ 31.27268785867744, -17.751555694167028 ], [ 31.272401448368655, -17.751925219624248 ], [ 31.271452363227777, -17.751818517744503 ] ] ] } }
]
}
